{
  "type": "FeatureCollection",
  "features": [
    {
      "type": "Feature",
      "properties": {
        "norad_id": 29994,
        "name": "FENGYUN 1C DEB",
        "group": "fengyun-1c-debris",
        "lat": 0.9520981989706654,
        "lon": -152.6246215725111,
        "alt_km": 794.7587986650724,
        "timestamp": "2025-12-21T05:44:51.858847+00:00",
        "meta_object_name": "FENGYUN 1C DEB",
        "meta_object_id": "1999-025LU",
        "meta_epoch": "2025-12-20T21:11:00.170304",
        "meta_mean_motion": 14.02645135,
        "meta_eccentricity": 0.0129835,
        "meta_inclination": 98.8273,
        "meta_ra_of_asc_node": 26.8815,
        "meta_arg_of_pericenter": 190.8235,
        "meta_mean_anomaly": 347.457,
        "meta_ephemeris_type": 0,
        "meta_classification_type": "U",
        "meta_norad_cat_id": 29994,
        "meta_element_set_no": 999,
        "meta_rev_at_epoch": 96840,
        "meta_bstar": -4.6312317e-05,
        "meta_mean_motion_dot": -1.2e-06,
        "meta_mean_motion_ddot": 0,
        "tle_line1": "1 29994U 99025LU  25354.88264086 -.00000120  00000+0 -46312-4 0  9993",
        "tle_line2": "2 29994  98.8273  26.8815 0129835 190.8235 347.4570 14.02645135968406"
      },
      "geometry": {
        "type": "Point",
        "coordinates": [
          -152.6246215725111,
          0.9520981989706654
        ]
      }
    },
    {
      "type": "Feature",
      "properties": {
        "norad_id": 29996,
        "name": "FENGYUN 1C DEB",
        "group": "fengyun-1c-debris",
        "lat": -28.805850635496355,
        "lon": -152.27391401722466,
        "alt_km": 944.1312183198243,
        "timestamp": "2025-12-21T05:44:51.858857+00:00",
        "meta_object_name": "FENGYUN 1C DEB",
        "meta_object_id": "1999-025LW",
        "meta_epoch": "2025-12-20T15:41:44.517408",
        "meta_mean_motion": 14.09465369,
        "meta_eccentricity": 0.0130981,
        "meta_inclination": 99.3028,
        "meta_ra_of_asc_node": 32.2926,
        "meta_arg_of_pericenter": 65.869,
        "meta_mean_anomaly": 53.1271,
        "meta_ephemeris_type": 0,
        "meta_classification_type": "U",
        "meta_norad_cat_id": 29996,
        "meta_element_set_no": 999,
        "meta_rev_at_epoch": 96248,
        "meta_bstar": 0.001226,
        "meta_mean_motion_dot": 2.273e-05,
        "meta_mean_motion_ddot": 0,
        "tle_line1": "1 29996U 99025LW  25354.65398747  .00002273  00000+0  12260-2 0  9994",
        "tle_line2": "2 29996  99.3028  32.2926 0130981  65.8690  53.1271 14.09465369962483"
      },
      "geometry": {
        "type": "Point",
        "coordinates": [
          -152.27391401722466,
          -28.805850635496355
        ]
      }
    },
    {
      "type": "Feature",
      "properties": {
        "norad_id": 29997,
        "name": "FENGYUN 1C DEB",
        "group": "fengyun-1c-debris",
        "lat": -39.33829076437284,
        "lon": 12.816078414006,
        "alt_km": 841.1870998894401,
        "timestamp": "2025-12-21T05:44:51.858867+00:00",
        "meta_object_name": "FENGYUN 1C DEB",
        "meta_object_id": "1999-025LX",
        "meta_epoch": "2025-12-20T20:14:46.353984",
        "meta_mean_motion": 14.00896878,
        "meta_eccentricity": 0.00801463,
        "meta_inclination": 98.8822,
        "meta_ra_of_asc_node": 5.0675,
        "meta_arg_of_pericenter": 304.8083,
        "meta_mean_anomaly": 179.6164,
        "meta_ephemeris_type": 0,
        "meta_classification_type": "U",
        "meta_norad_cat_id": 29997,
        "meta_element_set_no": 999,
        "meta_rev_at_epoch": 96503,
        "meta_bstar": 0.00065572833,
        "meta_mean_motion_dot": 9.64e-06,
        "meta_mean_motion_ddot": 0,
        "tle_line1": "1 29997U 99025LX  25354.84359206  .00000964  00000+0  65573-3 0  9994",
        "tle_line2": "2 29997  98.8822   5.0675 0080146 304.8083 179.6164 14.00896878965031"
      },
      "geometry": {
        "type": "Point",
        "coordinates": [
          12.816078414006,
          -39.33829076437284
        ]
      }
    },
    {
      "type": "Feature",
      "properties": {
        "norad_id": 29998,
        "name": "FENGYUN 1C DEB",
        "group": "fengyun-1c-debris",
        "lat": -23.25276644968586,
        "lon": 60.23604944337873,
        "alt_km": 800.2969093124821,
        "timestamp": "2025-12-21T05:44:51.858878+00:00",
        "meta_object_name": "FENGYUN 1C DEB",
        "meta_object_id": "1999-025LY",
        "meta_epoch": "2025-12-20T21:27:11.508480",
        "meta_mean_motion": 14.28577133,
        "meta_eccentricity": 0.00051336,
        "meta_inclination": 99.3057,
        "meta_ra_of_asc_node": 55.8277,
        "meta_arg_of_pericenter": 272.7768,
        "meta_mean_anomaly": 87.2823,
        "meta_ephemeris_type": 0,
        "meta_classification_type": "U",
        "meta_norad_cat_id": 29998,
        "meta_element_set_no": 999,
        "meta_rev_at_epoch": 97991,
        "meta_bstar": 0.00063772672,
        "meta_mean_motion_dot": 1.551e-05,
        "meta_mean_motion_ddot": 0,
        "tle_line1": "1 29998U 99025LY  25354.89388320  .00001551  00000+0  63773-3 0  9992",
        "tle_line2": "2 29998  99.3057  55.8277 0005133 272.7768  87.2823 14.28577133979913"
      },
      "geometry": {
        "type": "Point",
        "coordinates": [
          60.23604944337873,
          -23.25276644968586
        ]
      }
    },
    {
      "type": "Feature",
      "properties": {
        "norad_id": 29999,
        "name": "FENGYUN 1C DEB",
        "group": "fengyun-1c-debris",
        "lat": -17.14594054380749,
        "lon": 156.58024744989314,
        "alt_km": 839.4544888210075,
        "timestamp": "2025-12-21T05:44:51.858888+00:00",
        "meta_object_name": "FENGYUN 1C DEB",
        "meta_object_id": "1999-025LZ",
        "meta_epoch": "2025-12-20T22:19:48.756288",
        "meta_mean_motion": 14.20145806,
        "meta_eccentricity": 0.01897527,
        "meta_inclination": 98.577,
        "meta_ra_of_asc_node": 338.9492,
        "meta_arg_of_pericenter": 102.9573,
        "meta_mean_anomaly": 312.9035,
        "meta_ephemeris_type": 0,
        "meta_classification_type": "U",
        "meta_norad_cat_id": 29999,
        "meta_element_set_no": 999,
        "meta_rev_at_epoch": 97840,
        "meta_bstar": 0.00021950395,
        "meta_mean_motion_dot": 5.18e-06,
        "meta_mean_motion_ddot": 0,
        "tle_line1": "1 29999U 99025LZ  25354.93042542  .00000518  00000+0  21950-3 0  9994",
        "tle_line2": "2 29999  98.5770 338.9492 0189752 102.9573 312.9035 14.20145806978405"
      },
      "geometry": {
        "type": "Point",
        "coordinates": [
          156.58024744989314,
          -17.14594054380749
        ]
      }
    },
    {
      "type": "Feature",
      "properties": {
        "norad_id": 30001,
        "name": "FENGYUN 1C DEB",
        "group": "fengyun-1c-debris",
        "lat": -11.861277282333687,
        "lon": 72.55519302056004,
        "alt_km": 764.905675905864,
        "timestamp": "2025-12-21T05:44:51.858898+00:00",
        "meta_object_name": "FENGYUN 1C DEB",
        "meta_object_id": "1999-025MA",
        "meta_epoch": "2025-12-20T11:30:52.242048",
        "meta_mean_motion": 14.38690457,
        "meta_eccentricity": 0.00367426,
        "meta_inclination": 98.9595,
        "meta_ra_of_asc_node": 69.8637,
        "meta_arg_of_pericenter": 75.6672,
        "meta_mean_anomaly": 300.2939,
        "meta_ephemeris_type": 0,
        "meta_classification_type": "U",
        "meta_norad_cat_id": 30001,
        "meta_element_set_no": 999,
        "meta_rev_at_epoch": 97543,
        "meta_bstar": 0.0016674591,
        "meta_mean_motion_dot": 5.11e-05,
        "meta_mean_motion_ddot": 0,
        "tle_line1": "1 30001U 99025MA  25354.47977132  .00005110  00000+0  16675-2 0  9991",
        "tle_line2": "2 30001  98.9595  69.8637 0036742  75.6672 300.2939 14.38690457975436"
      },
      "geometry": {
        "type": "Point",
        "coordinates": [
          72.55519302056004,
          -11.861277282333687
        ]
      }
    },
    {
      "type": "Feature",
      "properties": {
        "norad_id": 30003,
        "name": "FENGYUN 1C DEB",
        "group": "fengyun-1c-debris",
        "lat": -24.794617358139064,
        "lon": -25.30296550941835,
        "alt_km": 1004.7723339823415,
        "timestamp": "2025-12-21T05:44:51.858909+00:00",
        "meta_object_name": "FENGYUN 1C DEB",
        "meta_object_id": "1999-025MC",
        "meta_epoch": "2025-12-20T21:20:42.552960",
        "meta_mean_motion": 13.85630917,
        "meta_eccentricity": 0.01436779,
        "meta_inclination": 99.5776,
        "meta_ra_of_asc_node": 329.866,
        "meta_arg_of_pericenter": 98.295,
        "meta_mean_anomaly": 292.5364,
        "meta_ephemeris_type": 0,
        "meta_classification_type": "U",
        "meta_norad_cat_id": 30003,
        "meta_element_set_no": 999,
        "meta_rev_at_epoch": 95601,
        "meta_bstar": 0.00028799224,
        "meta_mean_motion_dot": 3.11e-06,
        "meta_mean_motion_ddot": 0,
        "tle_line1": "1 30003U 99025MC  25354.88938140  .00000311  00000+0  28799-3 0  9993",
        "tle_line2": "2 30003  99.5776 329.8660 0143677  98.2950 292.5364 13.85630917956011"
      },
      "geometry": {
        "type": "Point",
        "coordinates": [
          -25.30296550941835,
          -24.794617358139064
        ]
      }
    }
  ]
}